STARLINK-36092          
1 66869U 25281X   25364.09270933  .00093985  00000+0  15872-2 0  9994
2 66869  43.0001  18.0789 0001218 263.2636  96.8085 15.50604544  5519
STARLINK-36114          
1 66870U 25281Y   25364.15678203  .00100505  00000+0  16964-2 0  9995
2 66870  42.9991  17.6976 0000710 223.1493 136.9311 15.50590209  5523
STARLINK-36095          
1 66871U 25281Z   25364.09202397  .00117349  00000+0  19746-2 0  9991
2 66871  43.0029  18.0734 0001256 261.0829  98.9890 15.50603228  5519
STARLINK-36082          
1 66872U 25281AA  25364.09168015  .00138620  00000+0  23236-2 0  9994
2 66872  43.0014  18.0700 0001239 256.4078 103.6644 15.50621335  5512
STARLINK-36128          
1 66873U 25281AB  25364.09065123  .00092998  00000+0  15708-2 0  9993
2 66873  43.0011  18.0610 0001244 261.7355  98.3364 15.50604697  5468
STARLINK-36129          
1 66874U 25281AC  25364.09133742  .00092703  00000+0  15660-2 0  9998
2 66874  43.0028  18.0671 0001384 262.0798  97.9905 15.50603688  5515
STARLINK-36053          
1 66875U 25281AD  25364.02589380  .00179014  00000+0  29836-2 0  9996
2 66875  43.0011  18.4346 0000930 259.5768 100.4987 15.50619817  5459
STARLINK-35702          
1 66876U 25281AE  25364.09099655  .00095564  00000+0  16107-2 0  9999
2 66876  42.9995  18.0636 0001623  72.7956 287.3082 15.50653736  5517
ZQ-3 R/B                
1 66877U 25282A   25364.13775571  .01093354  81285-5  16744-3 0  9998
2 66877  56.9490 349.2791 0632146 250.9450 102.2118 14.95205495  3968
STARLINK-35866          
1 66878U 25283A   25364.16670139 -.00125953  00000+0 -22884-2 0  9990
2 66878  53.1591 347.8279 0002247  90.3317 123.6500 15.49365300  5232
STARLINK-35749          
1 66879U 25283B   25364.16670139 -.00048495  00000+0 -86947-3 0  9997
2 66879  53.1588 347.8190 0001125  86.8382 131.0189 15.49302902  5232
STARLINK-35844          
1 66880U 25283C   25364.16670139  .00082028  00000+0  14737-2 0  9994
2 66880  53.1589 347.8240 0001808  81.2565 134.7065 15.49187142  5231
