CCSDS_OMM_VERS = 2.0
CREATION_DATE  = 
ORIGINATOR     = 

OBJECT_NAME    = STARLINK-36092
OBJECT_ID      = 2025-281X
CENTER_NAME    = EARTH
REF_FRAME      = TEME
TIME_SYSTEM    = UTC
MEAN_ELEMENT_THEORY = SGP/SGP4

EPOCH          = 2025-12-30T02:13:30.086112
MEAN_MOTION    = 15.50604544
ECCENTRICITY   = .0001218
INCLINATION    = 43.0001
RA_OF_ASC_NODE = 18.0789
ARG_OF_PERICENTER = 263.2636
MEAN_ANOMALY   = 96.8085

EPHEMERIS_TYPE = 0
CLASSIFICATION_TYPE = U
NORAD_CAT_ID   = 66869
ELEMENT_SET_NO = 999
REV_AT_EPOCH   = 551
BSTAR          = .15872E-2
MEAN_MOTION_DOT = .93985E-3
MEAN_MOTION_DDOT = 0

CCSDS_OMM_VERS = 2.0
CREATION_DATE  = 
ORIGINATOR     = 

OBJECT_NAME    = STARLINK-36114
OBJECT_ID      = 2025-281Y
CENTER_NAME    = EARTH
REF_FRAME      = TEME
TIME_SYSTEM    = UTC
MEAN_ELEMENT_THEORY = SGP/SGP4

EPOCH          = 2025-12-30T03:45:45.967392
MEAN_MOTION    = 15.50590209
ECCENTRICITY   = .000071
INCLINATION    = 42.9991
RA_OF_ASC_NODE = 17.6976
ARG_OF_PERICENTER = 223.1493
MEAN_ANOMALY   = 136.9311

EPHEMERIS_TYPE = 0
CLASSIFICATION_TYPE = U
NORAD_CAT_ID   = 66870
ELEMENT_SET_NO = 999
REV_AT_EPOCH   = 552
BSTAR          = .16964E-2
MEAN_MOTION_DOT = .100505E-2
MEAN_MOTION_DDOT = 0

CCSDS_OMM_VERS = 2.0
CREATION_DATE  = 
ORIGINATOR     = 

OBJECT_NAME    = STARLINK-36095
OBJECT_ID      = 2025-281Z
CENTER_NAME    = EARTH
REF_FRAME      = TEME
TIME_SYSTEM    = UTC
MEAN_ELEMENT_THEORY = SGP/SGP4

EPOCH          = 2025-12-30T02:12:30.871008
MEAN_MOTION    = 15.50603228
ECCENTRICITY   = .0001256
INCLINATION    = 43.0029
RA_OF_ASC_NODE = 18.0734
ARG_OF_PERICENTER = 261.0829
MEAN_ANOMALY   = 98.9890

EPHEMERIS_TYPE = 0
CLASSIFICATION_TYPE = U
NORAD_CAT_ID   = 66871
ELEMENT_SET_NO = 999
REV_AT_EPOCH   = 551
BSTAR          = .19746E-2
MEAN_MOTION_DOT = .117349E-2
MEAN_MOTION_DDOT = 0

CCSDS_OMM_VERS = 2.0
CREATION_DATE  = 
ORIGINATOR     = 

OBJECT_NAME    = STARLINK-36082
OBJECT_ID      = 2025-281AA
CENTER_NAME    = EARTH
REF_FRAME      = TEME
TIME_SYSTEM    = UTC
MEAN_ELEMENT_THEORY = SGP/SGP4

EPOCH          = 2025-12-30T02:12:01.164960
MEAN_MOTION    = 15.50621335
ECCENTRICITY   = .0001239
INCLINATION    = 43.0014
RA_OF_ASC_NODE = 18.0700
ARG_OF_PERICENTER = 256.4078
MEAN_ANOMALY   = 103.6644

EPHEMERIS_TYPE = 0
CLASSIFICATION_TYPE = U
NORAD_CAT_ID   = 66872
ELEMENT_SET_NO = 999
REV_AT_EPOCH   = 551
BSTAR          = .23236E-2
MEAN_MOTION_DOT = .13862E-2
MEAN_MOTION_DDOT = 0

CCSDS_OMM_VERS = 2.0
CREATION_DATE  = 
ORIGINATOR     = 

OBJECT_NAME    = STARLINK-36128
OBJECT_ID      = 2025-281AB
CENTER_NAME    = EARTH
REF_FRAME      = TEME
TIME_SYSTEM    = UTC
MEAN_ELEMENT_THEORY = SGP/SGP4

EPOCH          = 2025-12-30T02:10:32.266272
MEAN_MOTION    = 15.50604697
ECCENTRICITY   = .0001244
INCLINATION    = 43.0011
RA_OF_ASC_NODE = 18.0610
ARG_OF_PERICENTER = 261.7355
MEAN_ANOMALY   = 98.3364

EPHEMERIS_TYPE = 0
CLASSIFICATION_TYPE = U
NORAD_CAT_ID   = 66873
ELEMENT_SET_NO = 999
REV_AT_EPOCH   = 546
BSTAR          = .15708E-2
MEAN_MOTION_DOT = .92998E-3
MEAN_MOTION_DDOT = 0

CCSDS_OMM_VERS = 2.0
CREATION_DATE  = 
ORIGINATOR     = 

OBJECT_NAME    = STARLINK-36129
OBJECT_ID      = 2025-281AC
CENTER_NAME    = EARTH
REF_FRAME      = TEME
TIME_SYSTEM    = UTC
MEAN_ELEMENT_THEORY = SGP/SGP4

EPOCH          = 2025-12-30T02:11:31.553088
MEAN_MOTION    = 15.50603688
ECCENTRICITY   = .0001384
INCLINATION    = 43.0028
RA_OF_ASC_NODE = 18.0671
ARG_OF_PERICENTER = 262.0798
MEAN_ANOMALY   = 97.9905

EPHEMERIS_TYPE = 0
CLASSIFICATION_TYPE = U
NORAD_CAT_ID   = 66874
ELEMENT_SET_NO = 999
REV_AT_EPOCH   = 551
BSTAR          = .1566E-2
MEAN_MOTION_DOT = .92703E-3
MEAN_MOTION_DDOT = 0

CCSDS_OMM_VERS = 2.0
CREATION_DATE  = 
ORIGINATOR     = 

OBJECT_NAME    = STARLINK-36053
OBJECT_ID      = 2025-281AD
CENTER_NAME    = EARTH
REF_FRAME      = TEME
TIME_SYSTEM    = UTC
MEAN_ELEMENT_THEORY = SGP/SGP4

EPOCH          = 2025-12-30T00:37:17.224320
MEAN_MOTION    = 15.50619817
ECCENTRICITY   = .000093
INCLINATION    = 43.0011
RA_OF_ASC_NODE = 18.4346
ARG_OF_PERICENTER = 259.5768
MEAN_ANOMALY   = 100.4987

EPHEMERIS_TYPE = 0
CLASSIFICATION_TYPE = U
NORAD_CAT_ID   = 66875
ELEMENT_SET_NO = 999
REV_AT_EPOCH   = 545
BSTAR          = .29836E-2
MEAN_MOTION_DOT = .179014E-2
MEAN_MOTION_DDOT = 0

CCSDS_OMM_VERS = 2.0
CREATION_DATE  = 
ORIGINATOR     = 

OBJECT_NAME    = STARLINK-35702
OBJECT_ID      = 2025-281AE
CENTER_NAME    = EARTH
REF_FRAME      = TEME
TIME_SYSTEM    = UTC
MEAN_ELEMENT_THEORY = SGP/SGP4

EPOCH          = 2025-12-30T02:11:02.101920
MEAN_MOTION    = 15.50653736
ECCENTRICITY   = .0001623
INCLINATION    = 42.9995
RA_OF_ASC_NODE = 18.0636
ARG_OF_PERICENTER = 72.7956
MEAN_ANOMALY   = 287.3082

EPHEMERIS_TYPE = 0
CLASSIFICATION_TYPE = U
NORAD_CAT_ID   = 66876
ELEMENT_SET_NO = 999
REV_AT_EPOCH   = 551
BSTAR          = .16107E-2
MEAN_MOTION_DOT = .95564E-3
MEAN_MOTION_DDOT = 0

CCSDS_OMM_VERS = 2.0
CREATION_DATE  = 
ORIGINATOR     = 

OBJECT_NAME    = ZQ-3 R/B
OBJECT_ID      = 2025-282A
CENTER_NAME    = EARTH
REF_FRAME      = TEME
TIME_SYSTEM    = UTC
MEAN_ELEMENT_THEORY = SGP/SGP4

EPOCH          = 2025-12-30T03:18:22.093344
MEAN_MOTION    = 14.95205495
ECCENTRICITY   = .0632146
INCLINATION    = 56.9490
RA_OF_ASC_NODE = 349.2791
ARG_OF_PERICENTER = 250.9450
MEAN_ANOMALY   = 102.2118

EPHEMERIS_TYPE = 0
CLASSIFICATION_TYPE = U
NORAD_CAT_ID   = 66877
ELEMENT_SET_NO = 999
REV_AT_EPOCH   = 396
BSTAR          = .16744E-3
MEAN_MOTION_DOT = .1093354E-1
MEAN_MOTION_DDOT = .81285E-5

CCSDS_OMM_VERS = 2.0
CREATION_DATE  = 
ORIGINATOR     = 

OBJECT_NAME    = STARLINK-35866
OBJECT_ID      = 2025-283A
CENTER_NAME    = EARTH
REF_FRAME      = TEME
TIME_SYSTEM    = UTC
MEAN_ELEMENT_THEORY = SGP/SGP4

EPOCH          = 2025-12-30T04:00:03.000096
MEAN_MOTION    = 15.49365300
ECCENTRICITY   = .0002247
INCLINATION    = 53.1591
RA_OF_ASC_NODE = 347.8279
ARG_OF_PERICENTER = 90.3317
MEAN_ANOMALY   = 123.6500

EPHEMERIS_TYPE = 0
CLASSIFICATION_TYPE = U
NORAD_CAT_ID   = 66878
ELEMENT_SET_NO = 999
REV_AT_EPOCH   = 523
BSTAR          = -.22884E-2
MEAN_MOTION_DOT = -.125953E-2
MEAN_MOTION_DDOT = 0

CCSDS_OMM_VERS = 2.0
CREATION_DATE  = 
ORIGINATOR     = 

OBJECT_NAME    = STARLINK-35749
OBJECT_ID      = 2025-283B
CENTER_NAME    = EARTH
REF_FRAME      = TEME
TIME_SYSTEM    = UTC
MEAN_ELEMENT_THEORY = SGP/SGP4

EPOCH          = 2025-12-30T04:00:03.000096
MEAN_MOTION    = 15.49302902
ECCENTRICITY   = .0001125
INCLINATION    = 53.1588
RA_OF_ASC_NODE = 347.8190
ARG_OF_PERICENTER = 86.8382
MEAN_ANOMALY   = 131.0189

EPHEMERIS_TYPE = 0
CLASSIFICATION_TYPE = U
NORAD_CAT_ID   = 66879
ELEMENT_SET_NO = 999
REV_AT_EPOCH   = 523
BSTAR          = -.86947E-3
MEAN_MOTION_DOT = -.48495E-3
MEAN_MOTION_DDOT = 0

CCSDS_OMM_VERS = 2.0
CREATION_DATE  = 
ORIGINATOR     = 

OBJECT_NAME    = STARLINK-35844
OBJECT_ID      = 2025-283C
CENTER_NAME    = EARTH
REF_FRAME      = TEME
TIME_SYSTEM    = UTC
MEAN_ELEMENT_THEORY = SGP/SGP4

EPOCH          = 2025-12-30T04:00:03.000096
MEAN_MOTION    = 15.49187142
ECCENTRICITY   = .0001808
INCLINATION    = 53.1589
RA_OF_ASC_NODE = 347.8240
ARG_OF_PERICENTER = 81.2565
MEAN_ANOMALY   = 134.7065

EPHEMERIS_TYPE = 0
CLASSIFICATION_TYPE = U
NORAD_CAT_ID   = 66880
ELEMENT_SET_NO = 999
REV_AT_EPOCH   = 523
BSTAR          = .14737E-2
MEAN_MOTION_DOT = .82028E-3
MEAN_MOTION_DDOT = 0

